OBJECT_NAME,OBJECT_ID,EPOCH,MEAN_MOTION,ECCENTRICITY,INCLINATION,RA_OF_ASC_NODE,ARG_OF_PERICENTER,MEAN_ANOMALY,EPHEMERIS_TYPE,CLASSIFICATION_TYPE,NORAD_CAT_ID,ELEMENT_SET_NO,REV_AT_EPOCH,BSTAR,MEAN_MOTION_DOT,MEAN_MOTION_DDOT
STARLINK-30501,2023-147E,2026-07-03T20:11:45.415104,15.27585856,.00023679,43.0009,29.0968,275.3409,84.7173,0,U,57917,999,15438,.11202515E-2,.307E-3,0
STARLINK-30499,2023-147F,2026-07-04T05:16:48.002592,15.27566230,.0001619,43.0034,242.1216,266.0324,94.0343,0,U,57918,999,15615,-.71044899E-4,-.2216E-4,0
STARLINK-30496,2023-147G,2026-07-04T05:53:20.540832,15.27581640,.000148,42.9997,26.9670,280.6590,79.4095,0,U,57919,999,15445,.19205564E-3,.5027E-4,0
STARLINK-30485,2023-147H,2026-07-04T05:58:53.266368,15.27587445,.00013772,43.0035,27.0008,260.0230,100.0467,0,U,57920,999,15445,-.16877183E-4,-.727E-5,0
STARLINK-30492,2023-147J,2026-07-04T06:08:09.055104,15.27565906,.00010372,43.0033,27.0456,264.8323,95.2410,0,U,57921,999,15442,.16891696E-3,.4387E-4,0
STARLINK-30440,2023-147L,2026-07-03T22:45:06.219360,15.27578369,.00011383,43.0040,29.0286,265.3436,94.7285,0,U,57923,999,15440,-.36895544E-4,-.1277E-4,0
STARLINK-30487,2023-147M,2026-07-04T06:12:58.263552,15.27587998,.00010917,43.0046,30.4566,269.5377,90.5349,0,U,57924,999,15441,.39660184E-4,.83E-5,0
STARLINK-30452,2023-147N,2026-07-03T13:23:52.452672,15.27583878,.00014014,43.0042,31.2658,255.7628,104.3068,0,U,57925,999,15431,-.53205641E-4,-.1726E-4,0
STARLINK-30468,2023-147P,2026-07-03T20:12:52.210080,15.27594801,.00018075,43.0051,32.5116,259.9780,100.0868,0,U,57926,999,15432,.32567501E-4,.634E-5,0
STARLINK-30448,2023-147R,2026-07-03T23:41:33.209952,15.27576025,.0000549,43.0025,31.8706,243.4938,116.5858,0,U,57928,999,15434,.10421218E-3,.2607E-4,0
STARLINK-30476,2023-147T,2026-07-04T06:00:02.999808,15.87274713,.0007074,42.9891,301.7781,77.1585,42.7137,0,U,57930,999,594,.11425226E-2,.321168E-2,0
STARLINK-30488,2023-147U,2026-07-03T23:47:09.926304,15.27455410,.00005983,42.9997,31.8966,113.7513,246.3402,0,U,57931,999,15437,.98148835E-3,.26742E-3,0
STARLINK-30471,2023-147V,2026-07-03T22:59:41.351136,15.27648445,.00016971,43.0047,28.2516,208.2735,151.8025,0,U,57932,999,15438,-.46466845E-3,-.13054E-3,0
STARLINK-30461,2023-147W,2026-07-03T15:03:23.164416,15.27586711,.00003,43.0027,30.0722,245.0712,115.0109,0,U,57933,999,15433,-.15583278E-3,-.4548E-4,0
STARLINK-30712,2023-148A,2026-07-04T01:46:16.605984,15.34392053,.00011985,53.1604,202.1231,89.6173,270.4967,0,U,57935,999,15626,.18195062E-4,.238E-5,0
STARLINK-30716,2023-148B,2026-07-04T01:04:18.254208,15.30222614,.00012741,53.1598,203.9685,94.2049,265.9098,0,U,57936,999,15623,-.23163434E-3,-.7218E-4,0
STARLINK-30400,2023-148C,2026-07-03T18:45:45.995040,15.34389838,.00013206,53.1604,203.8062,86.4171,273.6982,0,U,57937,999,15621,.35507632E-4,.823E-5,0
STARLINK-30710,2023-148D,2026-07-04T01:18:54.901440,15.34383602,.00010584,53.1586,192.1215,96.2277,263.8846,0,U,57938,999,15639,.85563418E-4,.2514E-4,0
STARLINK-30714,2023-148E,2026-07-04T01:07:59.739744,15.31199001,.00016602,53.1574,203.9741,54.5728,305.5428,0,U,57939,999,15623,.26836212E-2,.82535E-3,0
STARLINK-30711,2023-148F,2026-07-04T01:08:50.588736,15.30206177,.00010091,53.1603,203.9925,105.2412,254.8701,0,U,57940,999,15623,.11178657E-3,.2954E-4,0
STARLINK-30715,2023-148G,2026-07-04T01:30:07.294752,15.30189207,.00010635,53.1585,193.4445,81.4778,278.6344,0,U,57941,999,15638,-.14708962E-4,-.794E-5,0
STARLINK-30455,2023-148H,2026-07-04T01:17:58.645536,15.30190267,.00011503,53.1601,203.9809,83.7769,276.3363,0,U,57942,999,15623,.24620182E-4,.37E-5,0
STARLINK-30456,2023-148J,2026-07-04T00:59:46.589280,15.30187452,.00008991,53.1595,204.0295,88.2295,271.8809,0,U,57943,999,15623,-.9365172E-5,-.636E-5,0
STARLINK-30708,2023-148K,2026-07-04T00:42:46.770336,15.34385731,.00010869,53.1592,202.5381,118.6974,241.4138,0,U,57944,999,15625,.26218875E-4,.509E-5,0
STARLINK-30705,2023-148L,2026-07-03T18:30:38.081376,15.34376182,.00015001,53.1612,203.7771,94.3122,265.8052,0,U,57945,999,15621,.56391916E-4,.1528E-4,0
STARLINK-30704,2023-148M,2026-07-03T23:22:32.940768,15.34430808,.00012087,53.1594,280.4551,92.5470,267.5671,0,U,57946,999,15513,-.24836986E-3,-.8766E-4,0
STARLINK-30706,2023-148N,2026-07-04T01:40:12.625248,15.34400065,.00013294,53.1592,202.0766,81.3607,278.7546,0,U,57947,999,15626,-.30938489E-4,-.1421E-4,0
STARLINK-30707,2023-148Q,2026-07-03T18:12:27.859392,15.34388239,.00010197,53.1599,203.6930,92.2461,267.8658,0,U,57949,999,15621,.48555029E-4,.1264E-4,0
STARLINK-30701,2023-148R,2026-07-04T01:22:09.641856,15.34388621,.00011841,53.1591,202.6925,73.6580,286.4553,0,U,57950,999,15625,.15993126E-4,.164E-5,0
STARLINK-30399,2023-148S,2026-07-04T01:49:18.034752,15.34393757,.00012479,53.1600,202.1004,87.4051,272.7095,0,U,57951,999,15626,.27697029E-4,.559E-5,0
