STARLINK-30501          
1 57917U 23147E   26184.84149786  .00030700  00000+0  11203-2 0  9992
2 57917  43.0009  29.0968 0002367 275.3409  84.7173 15.27585856154382
STARLINK-30499          
1 57918U 23147F   26185.22000003 -.00002216  00000+0 -71045-4 0  9999
2 57918  43.0034 242.1216 0001619 266.0324  94.0343 15.27566230156152
STARLINK-30496          
1 57919U 23147G   26185.24537663  .00005027  00000+0  19206-3 0  9990
2 57919  42.9997  26.9670 0001480 280.6590  79.4095 15.27581640154458
STARLINK-30485          
1 57920U 23147H   26185.24922762 -.00000727  00000+0 -16877-4 0  9996
2 57920  43.0035  27.0008 0001377 260.0230 100.0467 15.27587445154453
STARLINK-30492          
1 57921U 23147J   26185.25566036  .00004387  00000+0  16892-3 0  9996
2 57921  43.0033  27.0456 0001037 264.8323  95.2410 15.27565906154425
STARLINK-30440          
1 57923U 23147L   26184.94798865 -.00001277  00000+0 -36896-4 0  9994
2 57923  43.0040  29.0286 0001138 265.3436  94.7285 15.27578369154400
STARLINK-30487          
1 57924U 23147M   26185.25900768  .00000830  00000+0  39660-4 0  9991
2 57924  43.0046  30.4566 0001091 269.5377  90.5349 15.27587998154416
STARLINK-30452          
1 57925U 23147N   26184.55824598 -.00001726  00000+0 -53206-4 0  9999
2 57925  43.0042  31.2658 0001401 255.7628 104.3068 15.27583878154319
STARLINK-30468          
1 57926U 23147P   26184.84227095  .00000634  00000+0  32568-4 0  9994
2 57926  43.0051  32.5116 0001807 259.9780 100.0868 15.27594801154328
STARLINK-30448          
1 57928U 23147R   26184.98718993  .00002607  00000+0  10421-3 0  9998
2 57928  43.0025  31.8706 0000549 243.4938 116.5858 15.27576025154344
STARLINK-30476          
1 57930U 23147T   26185.25003472  .00321168  00000+0  11425-2 0  9991
2 57930  42.9891 301.7781 0007074  77.1585  42.7137 15.87274713  5944
STARLINK-30488          
1 57931U 23147U   26184.99108711  .00026742  00000+0  98149-3 0  9993
2 57931  42.9997  31.8966 0000598 113.7513 246.3402 15.27455410154378
STARLINK-30471          
1 57932U 23147V   26184.95811749 -.00013054  00000+0 -46467-3 0  9992
2 57932  43.0047  28.2516 0001697 208.2735 151.8025 15.27648445154389
STARLINK-30461          
1 57933U 23147W   26184.62735144 -.00004548  00000+0 -15583-3 0  9994
2 57933  43.0027  30.0722 0000300 245.0712 115.0109 15.27586711154339
STARLINK-30712          
1 57935U 23148A   26185.07380331  .00000238  00000+0  18195-4 0  9994
2 57935  53.1604 202.1231 0001198  89.6173 270.4967 15.34392053156264
STARLINK-30716          
1 57936U 23148B   26185.04465572 -.00007218  00000+0 -23163-3 0  9990
2 57936  53.1598 203.9685 0001274  94.2049 265.9098 15.30222614156230
STARLINK-30400          
1 57937U 23148C   26184.78178235  .00000823  00000+0  35508-4 0  9998
2 57937  53.1604 203.8062 0001320  86.4171 273.6982 15.34389838156210
STARLINK-30710          
1 57938U 23148D   26185.05480210  .00002514  00000+0  85563-4 0  9994
2 57938  53.1586 192.1215 0001058  96.2277 263.8846 15.34383602156396
STARLINK-30714          
1 57939U 23148E   26185.04721921  .00082535  00000+0  26836-2 0  9998
2 57939  53.1574 203.9741 0001660  54.5728 305.5428 15.31199001156234
STARLINK-30711          
1 57940U 23148F   26185.04780774  .00002954  00000+0  11179-3 0  9993
2 57940  53.1603 203.9925 0001009 105.2412 254.8701 15.30206177156236
STARLINK-30715          
1 57941U 23148G   26185.06258443 -.00000794  00000+0 -14709-4 0  9994
2 57941  53.1585 193.4445 0001063  81.4778 278.6344 15.30189207156383
STARLINK-30455          
1 57942U 23148H   26185.05415099  .00000370  00000+0  24620-4 0  9997
2 57942  53.1601 203.9809 0001150  83.7769 276.3363 15.30190267156234
STARLINK-30456          
1 57943U 23148J   26185.04151145 -.00000636  00000+0 -93652-5 0  9995
2 57943  53.1595 204.0295 0000899  88.2295 271.8809 15.30187452156238
STARLINK-30708          
1 57944U 23148K   26185.02970799  .00000509  00000+0  26219-4 0  9999
2 57944  53.1592 202.5381 0001086 118.6974 241.4138 15.34385731156250
STARLINK-30705          
1 57945U 23148L   26184.77127409  .00001528  00000+0  56392-4 0  9990
2 57945  53.1612 203.7771 0001500  94.3122 265.8052 15.34376182156217
STARLINK-30704          
1 57946U 23148M   26184.97399237 -.00008766  00000+0 -24837-3 0  9994
2 57946  53.1594 280.4551 0001208  92.5470 267.5671 15.34430808155138
STARLINK-30706          
1 57947U 23148N   26185.06959057 -.00001421  00000+0 -30938-4 0  9999
2 57947  53.1592 202.0766 0001329  81.3607 278.7546 15.34400065156269
STARLINK-30707          
1 57949U 23148Q   26184.75865578  .00001264  00000+0  48555-4 0  9997
2 57949  53.1599 203.6930 0001019  92.2461 267.8658 15.34388239156219
STARLINK-30701          
1 57950U 23148R   26185.05705604  .00000164  00000+0  15993-4 0  9994
2 57950  53.1591 202.6925 0001184  73.6580 286.4553 15.34388621156254
STARLINK-30399          
1 57951U 23148S   26185.07590318  .00000559  00000+0  27697-4 0  9993
2 57951  53.1600 202.1004 0001247  87.4051 272.7095 15.34393757156261
